DMSP 5D-3 F16 (USA 172) 
1 28054U 03048A   26193.20770002 -.00000036  00000+0  49755-5 0  9997
2 28054  98.9887 217.2008 0008178  78.5893 354.6664 14.14484845173024
METEOSAT-9 (MSG-2)      
1 28912U 05049B   26192.72683765  .00000120  00000+0  00000+0 0  9995
2 28912   9.4145  53.9209 0002049 357.1028 185.9350  1.00270407  7241
DMSP 5D-3 F17 (USA 191) 
1 29522U 06050A   26193.20146182 -.00000007  00000+0  18985-4 0  9998
2 29522  98.7385 199.2603 0009896 351.6417   8.4590 14.14996065 15963
FENGYUN 3A              
1 32958U 08026A   26192.85749161  .00000016  00000+0  28345-4 0  9996
2 32958  98.6887 133.2298 0009749  60.4614 299.7533 14.19576043938900
GOES 14                 
1 35491U 09033A   26192.94653867 -.00000353  00000+0  00000+0 0  9995
2 35491   1.7509  82.7349 0001872  40.3588 274.5966  1.00099712  6830
DMSP 5D-3 F18 (USA 210) 
1 35951U 09057A   26193.17442580  .00000165  00000+0  10864-3 0  9999
2 35951  98.9054 173.8911 0011048 173.9451 186.1857 14.14910371863121
EWS-G2 (GOES 15)        
1 36411U 10008A   26193.18219507  .00000023  00000+0  00000+0 0  9991
2 36411   1.3436  82.5028 0005204  53.7849 282.7295  1.00268209 59889
COMS 1                  
1 36744U 10032A   26193.05890144 -.00000246  00000+0  00000+0 0  9993
2 36744   4.8663  75.0558 0011255  14.7288 195.8952  0.99168704 51332
FENGYUN 3B              
1 37214U 10059A   26193.20187605  .00000236  00000+0  14542-3 0  9991
2 37214  98.9615 239.3207 0023079 114.8017 332.6984 14.14847303810960
SUOMI NPP               
1 37849U 11061A   26193.15159649  .00000021  00000+0  30846-4 0  9998
2 37849  98.7956 133.8578 0000621 233.4752 126.6366 14.19522257761986
METEOSAT-10 (MSG-3)     
1 38552U 12035B   26192.85011719 -.00000008  00000+0  00000+0 0  9993
2 38552   4.7275  60.8953 0001085  18.1594 156.7978  1.00270156 51105
METOP-B                 
1 38771U 12049A   26193.17838251  .00000045  00000+0  40353-4 0  9995
2 38771  98.6491 244.1774 0001057 274.2343  85.8713 14.21445840716810
INSAT-3D                
1 39216U 13038B   26192.94705867 -.00000338  00000+0  00000+0 0  9995
2 39216   1.9872  82.2285 0000506  85.4828 232.5983  1.00269975 47320
FENGYUN 3C              
1 39260U 13052A   26193.20352772  .00000024  00000+0  33448-4 0  9991
2 39260  98.4996 165.9318 0013799 315.1481  44.8578 14.15760367662103
METEOR-M 2              
1 40069U 14037A   26193.20438817  .00000371  00000+0  18903-3 0  9992
2 40069  98.5123 168.0583 0005329 336.7440  23.3496 14.21469584622872
HIMAWARI-8              
1 40267U 14060A   26193.20183685 -.00000273  00000+0  00000+0 0  9995
2 40267   0.0214 309.8109 0001048 219.7177 333.8935  1.00272437 43013
FENGYUN 2G              
1 40367U 14090A   26192.94955483 -.00000300  00000+0  00000+0 0  9993
2 40367   5.6976  72.5145 0004315 151.9124 146.5618  1.00261523 42248
METEOSAT-11 (MSG-4)     
1 40732U 15034A   26193.13711117  .00000061  00000+0  00000+0 0  9997
2 40732   3.2619  70.9539 0002235 353.1740 284.5149  1.00270906  7462
ELEKTRO-L 2             
1 41105U 15074A   26192.41948436 -.00000118  00000+0  00000+0 0  9996
2 41105   6.7510  70.2237 0000888 218.2194 137.3884  1.00272476 38749
SENTINEL-3A             
1 41335U 16011A   26193.18279750  .00000040  00000+0  34449-4 0  9996
2 41335  98.6238 260.2061 0001377  90.9952 269.1386 14.26739229541621
INSAT-3DR               
1 41752U 16054A   26192.89029159 -.00000073  00000+0  00000+0 0  9997
2 41752   0.0611  88.7325 0010640 181.7646  53.8059  1.00271971 36069
HIMAWARI-9              
1 41836U 16064A   26192.94922535  .00000000  00000+0  00000+0 0  9996
2 41836   0.0289  56.5233 0002288 122.4495 233.3623  1.00270197 35450
GOES 16                 
1 41866U 16071A   26193.13146176 -.00000088  00000+0  00000+0 0  9995
2 41866   0.3957  85.5065 0000521  98.0134  49.1450  1.00270889 35357
FENGYUN 4A              
1 41882U 16077A   26192.97544551 -.00000356  00000+0  00000+0 0  9997
2 41882   2.3817  80.0081 0008474 159.1108 165.6912  1.00269932 35179
CYGFM05                 
1 41884U 16078A   26193.11769397  .00016961  00000+0  22099-3 0  9998
2 41884  34.9566  95.3657 0006520   6.4855 353.5953 15.57754796532645
CYGFM04                 
1 41885U 16078B   26193.00823687  .00021763  00000+0  23212-3 0  9994
2 41885  34.9325  62.4944 0004593  48.1886 311.9231 15.62937948532889
CYGFM02                 
1 41886U 16078C   26192.95948330  .00026306  00000+0  24625-3 0  9998
2 41886  34.9407  56.6012 0005334  51.8258 308.2949 15.66185448533059
CYGFM01                 
1 41887U 16078D   26193.09523772  .00017038  00000+0  21606-3 0  9992
2 41887  34.9395  96.3657 0006609   0.1122 359.9603 15.58468472532595
CYGFM08                 
1 41888U 16078E   26193.07456772  .00019997  00000+0  22707-3 0  9995
2 41888  34.9432  75.4042 0006692  35.5507 324.5663 15.61329763532862
CYGFM07                 
1 41890U 16078G   26193.03209654  .00019782  00000+0  22382-3 0  9990
2 41890  34.9450  64.0074 0005023  48.6424 311.4733 15.61436171532881
CYGFM03                 
1 41891U 16078H   26193.06719734  .00020054  00000+0  22698-3 0  9993
2 41891  34.9404  65.7035 0005025  32.8807 327.2230 15.61425276532867
