OBJECT_NAME,OBJECT_ID,EPOCH,MEAN_MOTION,ECCENTRICITY,INCLINATION,RA_OF_ASC_NODE,ARG_OF_PERICENTER,MEAN_ANOMALY,EPHEMERIS_TYPE,CLASSIFICATION_TYPE,NORAD_CAT_ID,ELEMENT_SET_NO,REV_AT_EPOCH,BSTAR,MEAN_MOTION_DOT,MEAN_MOTION_DDOT
DMSP 5D-3 F16 (USA 172),2003-048A,2026-07-12T04:59:05.281728,14.14484845,.0008178,98.9887,217.2008,78.5893,354.6664,0,U,28054,999,17302,.49755E-5,-.36E-6,0
METEOSAT-9 (MSG-2),2005-049B,2026-07-11T17:26:38.772960,1.00270407,.00020492,9.4145,53.9209,357.1028,185.9350,0,U,28912,999,724,0,.12E-5,0
DMSP 5D-3 F17 (USA 191),2006-050A,2026-07-12T04:50:06.301248,14.14996065,.0009896,98.7385,199.2603,351.6417,8.4590,0,U,29522,999,1596,.18985E-4,-.7E-7,0
FENGYUN 3A,2008-026A,2026-07-11T20:34:47.275104,14.19576043,.00097491,98.6887,133.2298,60.4614,299.7533,0,U,32958,999,93890,.28345038E-4,.16E-6,0
GOES 14,2009-033A,2026-07-11T22:43:00.941088,1.00099712,.0001872,1.7509,82.7349,40.3588,274.5966,0,U,35491,999,683,0,-.353E-5,0
DMSP 5D-3 F18 (USA 210),2009-057A,2026-07-12T04:11:10.389120,14.14910371,.0011048,98.9054,173.8911,173.9451,186.1857,0,U,35951,999,86312,.10864E-3,.165E-5,0
EWS-G2 (GOES 15),2010-008A,2026-07-12T04:22:21.654048,1.00268209,.0005204,1.3436,82.5028,53.7849,282.7295,0,U,36411,999,5988,0,.23E-6,0
COMS 1,2010-032A,2026-07-12T01:24:49.084416,0.99168704,.0011255,4.8663,75.0558,14.7288,195.8952,0,U,36744,999,5133,0,-.246E-5,0
FENGYUN 3B,2010-059A,2026-07-12T04:50:42.090720,14.14847303,.0023079,98.9615,239.3207,114.8017,332.6984,0,U,37214,999,81096,.14542E-3,.236E-5,0
SUOMI NPP,2011-061A,2026-07-12T03:38:17.936736,14.19522257,.0000621,98.7956,133.8578,233.4752,126.6366,0,U,37849,999,76198,.30846E-4,.21E-6,0
METEOSAT-10 (MSG-3),2012-035B,2026-07-11T20:24:10.125216,1.00270156,.00010853,4.7275,60.8953,18.1594,156.7978,0,U,38552,999,5110,0,-.8E-7,0
METOP-B,2012-049A,2026-07-12T04:16:52.248864,14.21445840,.0001057,98.6491,244.1774,274.2343,85.8713,0,U,38771,999,71681,.40353E-4,.45E-6,0
INSAT-3D,2013-038B,2026-07-11T22:43:45.869088,1.00269975,.0000506,1.9872,82.2285,85.4828,232.5983,0,U,39216,999,4732,0,-.338E-5,0
FENGYUN 3C,2013-052A,2026-07-12T04:53:04.795008,14.15760367,.0013799,98.4996,165.9318,315.1481,44.8578,0,U,39260,999,66210,.33448E-4,.24E-6,0
METEOR-M 2,2014-037A,2026-07-12T04:54:19.137888,14.21469584,.0005329,98.5123,168.0583,336.7440,23.3496,0,U,40069,999,62287,.18903E-3,.371E-5,0
HIMAWARI-8,2014-060A,2026-07-12T04:50:38.703840,1.00272437,.0001048,0.0214,309.8109,219.7177,333.8935,0,U,40267,999,4301,0,-.273E-5,0
FENGYUN 2G,2014-090A,2026-07-11T22:47:21.537312,1.00261523,.0004315,5.6976,72.5145,151.9124,146.5618,0,U,40367,999,4224,0,-.3E-5,0
METEOSAT-11 (MSG-4),2015-034A,2026-07-12T03:17:26.405088,1.00270906,.0002235,3.2619,70.9539,353.1740,284.5149,0,U,40732,999,746,0,.61E-6,0
ELEKTRO-L 2,2015-074A,2026-07-11T10:04:03.448704,1.00272476,.00008885,6.7510,70.2237,218.2194,137.3884,0,U,41105,999,3874,0,-.118E-5,0
SENTINEL-3A,2016-011A,2026-07-12T04:23:13.704000,14.26739229,.0001377,98.6238,260.2061,90.9952,269.1386,0,U,41335,999,54162,.34449E-4,.4E-6,0
INSAT-3DR,2016-054A,2026-07-11T21:22:01.193376,1.00271971,.001064,0.0611,88.7325,181.7646,53.8059,0,U,41752,999,3606,0,-.73E-6,0
HIMAWARI-9,2016-064A,2026-07-11T22:46:53.070240,1.00270197,.0002288,0.0289,56.5233,122.4495,233.3623,0,U,41836,999,3545,0,0,0
GOES 16,2016-071A,2026-07-12T03:09:18.296064,1.00270889,.0000521,0.3957,85.5065,98.0134,49.1450,0,U,41866,999,3535,0,-.88E-6,0
FENGYUN 4A,2016-077A,2026-07-11T23:24:38.492064,1.00269932,.0008474,2.3817,80.0081,159.1108,165.6912,0,U,41882,999,3517,0,-.356E-5,0
CYGFM05,2016-078A,2026-07-12T02:49:28.759008,15.57754796,.000652,34.9566,95.3657,6.4855,353.5953,0,U,41884,999,53264,.22099E-3,.16961E-3,0
CYGFM04,2016-078B,2026-07-12T00:11:51.665568,15.62937948,.0004593,34.9325,62.4944,48.1886,311.9231,0,U,41885,999,53288,.23212E-3,.21763E-3,0
CYGFM02,2016-078C,2026-07-11T23:01:39.357120,15.66185448,.0005334,34.9407,56.6012,51.8258,308.2949,0,U,41886,999,53305,.24625E-3,.26306E-3,0
CYGFM01,2016-078D,2026-07-12T02:17:08.539008,15.58468472,.0006609,34.9395,96.3657,0.1122,359.9603,0,U,41887,999,53259,.21606E-3,.17038E-3,0
CYGFM08,2016-078E,2026-07-12T01:47:22.651008,15.61329763,.0006692,34.9432,75.4042,35.5507,324.5663,0,U,41888,999,53286,.22707E-3,.19997E-3,0
CYGFM07,2016-078G,2026-07-12T00:46:13.141056,15.61436171,.0005023,34.9450,64.0074,48.6424,311.4733,0,U,41890,999,53288,.22382E-3,.19782E-3,0
CYGFM03,2016-078H,2026-07-12T01:36:45.850176,15.61425276,.0005025,34.9404,65.7035,32.8807,327.2230,0,U,41891,999,53286,.22698E-3,.20054E-3,0
